OBJECT_NAME,OBJECT_ID,EPOCH,MEAN_MOTION,ECCENTRICITY,INCLINATION,RA_OF_ASC_NODE,ARG_OF_PERICENTER,MEAN_ANOMALY,EPHEMERIS_TYPE,CLASSIFICATION_TYPE,NORAD_CAT_ID,ELEMENT_SET_NO,REV_AT_EPOCH,BSTAR,MEAN_MOTION_DOT,MEAN_MOTION_DDOT,SEMIMAJOR_AXIS,DEBRIS_TYPE,ORBITAL_PERIOD,ORBITAL_PERIOD_HOURS,ALTITUDE,PERIGEE,APOGEE
FENGYUN 1C DEB,1999-025EPT,2024-12-28T19:57:49.869216,14.40072169,0.0235815,98.3164,9.0946,130.8631,231.3258,0,U,38122,999,62712,0.00089517,3.875e-05,0.0,7136.3970194332915,FENGYUN 1C,5999.702635873495,1.6665840655204152,765.3970194332915,6968.110073119525,7304.683965747057
FENGYUN 1C DEB,1999-025EPV,2024-12-30T08:26:30.955488,13.40711015,0.0357877,97.7885,30.9124,125.9745,237.5139,0,U,38124,999,49926,0.00061726,4.68e-06,0.0,7484.768798053138,FENGYUN 1C,6444.345344770186,1.7900959291028293,1113.7687980531382,7216.906137739052,7752.631458367225
FENGYUN 1C DEB,1999-025EQB,2024-12-29T16:11:11.607360,13.75553398,0.021133,98.6205,83.146,82.5887,279.9225,0,U,38130,999,64494,0.0034963,3.93e-05,0.0,7357.8377237484765,FENGYUN 1C,6281.111878869686,1.7447532996860238,986.8377237484765,7202.3445391325,7513.3309083644535
FENGYUN 1C DEB,1999-025EQG,2024-12-28T21:58:26.942304,14.23750264,0.0226251,98.7057,58.3667,5.7101,354.6578,0,U,38135,999,56074,0.00099516,2.915e-05,0.0,7190.834547059564,FENGYUN 1C,6068.483361627921,1.6856898226744226,819.8345470595641,7028.141196348887,7353.527897770241
FENGYUN 1C DEB,1999-025EQJ,2024-12-30T09:56:21.360768,14.05697095,0.0045325,98.9093,48.7168,321.681,38.1141,0,U,38137,999,58828,0.00093358,1.492e-05,0.0,7252.270757889383,FENGYUN 1C,6146.420035247609,1.7073388986798914,881.2707578893833,7219.399840679249,7285.141675099518
FENGYUN 1C DEB,1999-025EQQ,2024-12-30T21:06:01.749888,14.03961269,0.0057778,99.0687,57.0853,105.6532,255.1019,0,U,38143,999,55414,0.0017332,2.735e-05,0.0,7258.2472226171685,FENGYUN 1C,6154.019330142477,1.7094498139284657,887.2472226171685,7216.310521814332,7300.183923420005
FENGYUN 1C DEB,1999-025EQR,2024-12-29T19:32:46.323456,13.57719563,0.0294422,98.9897,212.2723,9.2001,351.4374,0,U,38144,999,56313,0.0030553,2.875e-05,0.0,7422.128303147581,FENGYUN 1C,6363.61515562648,1.7676708765629112,1051.1283031475814,7203.6045172206495,7640.652089074514
FENGYUN 1C DEB,1999-025EQT,2024-12-30T20:27:21.209184,14.53834037,0.0218159,99.5114,31.9104,58.9403,112.8432,0,U,38146,999,90032,0.0020652,0.00011864,0.0,7091.290655513414,FENGYUN 1C,5942.909966550303,1.6508083240417508,720.2906555134141,6936.587767701799,7245.993543325029
FENGYUN 1C DEB,1999-025EQU,2024-12-28T19:06:41.203872,14.22089113,0.0050649,98.5792,21.4325,233.3419,126.3097,0,U,38147,999,55425,0.0014377,3.182e-05,0.0,7196.433229345282,FENGYUN 1C,6075.5719941984835,1.6876588872773566,825.4332293452817,7159.984014681971,7232.882444008593
FENGYUN 1C DEB,1999-025EQW,2024-12-27T06:33:02.994048,14.25275872,0.0079482,98.3442,5.0786,111.4029,249.5655,0,U,38149,999,65494,0.0005199,1.224e-05,0.0,7185.702276192839,FENGYUN 1C,6061.987688091139,1.6838854689142053,814.7022761928392,7128.588877361203,7242.815675024475
FENGYUN 1C DEB,1999-025ERC,2024-12-28T23:37:45.551136,14.18812247,0.0108131,98.4525,276.7853,63.2886,297.931,0,U,38155,999,58818,0.0068131,0.00015004,0.0,7207.509479632795,FENGYUN 1C,6089.604037790182,1.6915566771639394,836.5094796327949,7129.573958878577,7285.445000387012
FENGYUN 1C DEB,1999-025ERE,2024-12-31T09:38:21.381504,14.19167588,0.0282684,99.6872,234.5948,5.1841,355.2153,0,U,38157,999,71330,0.0026176,8.12e-05,0.0,7206.306318691504,FENGYUN 1C,6088.079280596818,1.691133133499116,835.3063186915042,7002.595569152206,7410.017068230803
FENGYUN 1C DEB,1999-025ERF,2024-12-06T07:59:06.994176,13.70628628,0.021512,99.3209,13.4121,337.1124,22.0545,0,U,38158,999,51792,0.0019224,1.966e-05,0.0,7375.45202264771,FENGYUN 1C,6303.6803782544075,1.7510223272928909,1004.4520226477098,7216.7912987365125,7534.112746558907
FENGYUN 1C DEB,1999-025ERG,2024-12-25T22:25:42.852000,14.02783838,0.0056109,99.3552,237.6527,227.2116,132.4323,0,U,38159,999,78178,0.00091199,1.383e-05,0.0,7262.30814299055,FENGYUN 1C,6159.184725506769,1.7108846459741025,891.3081429905496,7221.560058231044,7303.056227750055
FENGYUN 1C DEB,1999-025ERL,2024-12-18T07:30:03.147552,14.04651564,0.0077937,99.1621,20.7679,160.3047,200.1158,0,U,38163,999,81667,0.0014158,2.282e-05,0.0,7255.869056453616,FENGYUN 1C,6150.995029396032,1.7086097303877867,884.8690564536164,7199.318989788334,7312.419123118898
FENGYUN 1C DEB,1999-025ERP,2024-12-31T04:20:28.823424,14.23964772,0.0059411,99.0821,89.8552,321.7684,37.9287,0,U,38166,999,58827,0.0067659,0.00015796,0.0,7190.112370829217,FENGYUN 1C,6067.569196997916,1.6854358880549767,819.1123708292171,7147.395194222883,7232.829547435551
FENGYUN 1C DEB,1999-025ERS,2024-12-27T13:53:46.794048,14.57453818,0.0034819,98.9399,299.3674,64.4273,296.0516,0,U,38169,999,77772,0.0060173,0.00027602,0.0,7079.54434562555,FENGYUN 1C,5928.149956788107,1.6467083213300298,708.5443456255498,7054.894080168516,7104.194611082583
FENGYUN 1C DEB,1999-025ERW,2024-12-31T10:11:59.800416,14.33408111,0.0172967,99.0329,245.0571,47.2258,314.3327,0,U,38173,999,55675,0.0032141,0.00010444,0.0,7158.498466278474,FENGYUN 1C,6027.595854867715,1.6743321819076986,787.4984662784736,7034.6800658567945,7282.316866700152
FENGYUN 1C DEB,1999-025ESA,2024-12-30T18:21:39.805056,13.95496468,0.0227069,98.9418,15.8522,261.3126,96.2256,0,U,38491,999,61619,0.0017244,2.861e-05,0.0,7287.5690079566075,FENGYUN 1C,6191.348374088011,1.7198189928022254,916.5690079566075,7122.090907249838,7453.047108663377
FENGYUN 1C DEB,1999-025ESB,2024-12-29T12:33:32.338080,13.88095787,0.0239325,98.6108,95.1529,30.3235,331.1525,0,U,38492,999,70666,0.0061878,9.239e-05,0.0,7313.448664078233,FENGYUN 1C,6224.357763429593,1.7289882676193316,942.4486640782334,7138.4195539251805,7488.477774231285
FENGYUN 1C DEB,1999-025ESC,2024-12-31T03:55:18.413184,13.61657922,0.0430343,99.0325,343.2379,64.9972,299.5222,0,U,38493,999,51780,0.0011164,1.554e-05,0.0,7407.809917495322,FENGYUN 1C,6345.209504239466,1.7625581956220737,1036.8099174953222,7089.020003162854,7726.599831827791
