FENGYUN 1C DEB          
1 38122U 99025EPT 24363.83182719  .00003875  00000+0  89517-3 0  9993
2 38122  98.3164   9.0946 0235815 130.8631 231.3258 14.40072169627129
FENGYUN 1C DEB          
1 38124U 99025EPV 24365.35174717  .00000468  00000+0  61726-3 0  9990
2 38124  97.7885  30.9124 0357877 125.9745 237.5139 13.40711015499266
FENGYUN 1C DEB          
1 38130U 99025EQB 24364.67443990  .00003930  00000+0  34963-2 0  9992
2 38130  98.6205  83.1460 0211330  82.5887 279.9225 13.75553398644949
FENGYUN 1C DEB          
1 38135U 99025EQG 24363.91558961  .00002915  00000+0  99516-3 0  9996
2 38135  98.7057  58.3667 0226251   5.7101 354.6578 14.23750264560749
FENGYUN 1C DEB          
1 38137U 99025EQJ 24365.41413612  .00001492  00000+0  93358-3 0  9995
2 38137  98.9093  48.7168 0045325 321.6810  38.1141 14.05697095588281
FENGYUN 1C DEB          
1 38143U 99025EQQ 24365.87918692  .00002735  00000+0  17332-2 0  9998
2 38143  99.0687  57.0853 0057778 105.6532 255.1019 14.03961269554147
FENGYUN 1C DEB          
1 38144U 99025EQR 24364.81442504  .00002875  00000+0  30553-2 0  9991
2 38144  98.9897 212.2723 0294422   9.2001 351.4374 13.57719563563138
FENGYUN 1C DEB          
1 38146U 99025EQT 24365.85232881  .00011864  00000+0  20652-2 0  9990
2 38146  99.5114  31.9104 0218159  58.9403 112.8432 14.53834037900329
FENGYUN 1C DEB          
1 38147U 99025EQU 24363.79631023  .00003182  00000+0  14377-2 0  9994
2 38147  98.5792  21.4325 0050649 233.3419 126.3097 14.22089113554251
FENGYUN 1C DEB          
1 38149U 99025EQW 24362.27295132  .00001224  00000+0  51990-3 0  9993
2 38149  98.3442   5.0786 0079482 111.4029 249.5655 14.25275872654948
FENGYUN 1C DEB          
1 38155U 99025ERC 24363.98455499  .00015004  00000+0  68131-2 0  9998
2 38155  98.4525 276.7853 0108131  63.2886 297.9310 14.18812247588181
FENGYUN 1C DEB          
1 38157U 99025ERE 24366.40163636  .00008120  00000+0  26176-2 0  9993
2 38157  99.6872 234.5948 0282684   5.1841 355.2153 14.19167588713309
FENGYUN 1C DEB          
1 38158U 99025ERF 24341.33271984  .00001966  00000+0  19224-2 0  9992
2 38158  99.3209  13.4121 0215120 337.1124  22.0545 13.70628628517928
FENGYUN 1C DEB          
1 38159U 99025ERG 24360.93452375  .00001383  00000+0  91199-3 0  9990
2 38159  99.3552 237.6527 0056109 227.2116 132.4323 14.02783838781788
FENGYUN 1C DEB          
1 38163U 99025ERL 24353.31253643  .00002282  00000+0  14158-2 0  9994
2 38163  99.1621  20.7679 0077937 160.3047 200.1158 14.04651564816677
FENGYUN 1C DEB          
1 38166U 99025ERP 24366.18088916  .00015796  00000+0  67659-2 0  9993
2 38166  99.0821  89.8552 0059411 321.7684  37.9287 14.23964772588274
FENGYUN 1C DEB          
1 38169U 99025ERS 24362.57901382  .00027602  00000+0  60173-2 0  9999
2 38169  98.9399 299.3674 0034819  64.4273 296.0516 14.57453818777722
FENGYUN 1C DEB          
1 38173U 99025ERW 24366.42499769  .00010444  00000+0  32141-2 0  9993
2 38173  99.0329 245.0571 0172967  47.2258 314.3327 14.33408111556757
FENGYUN 1C DEB          
1 38491U 99025ESA 24365.76504404  .00002861  00000+0  17244-2 0  9996
2 38491  98.9418  15.8522 0227069 261.3126  96.2256 13.95496468616194
FENGYUN 1C DEB          
1 38492U 99025ESB 24364.52329095  .00009239  00000+0  61878-2 0  9999
2 38492  98.6108  95.1529 0239325  30.3235 331.1525 13.88095787706662
FENGYUN 1C DEB          
1 38493U 99025ESC 24366.16340756  .00001554  00000+0  11164-2 0  9994
2 38493  99.0325 343.2379 0430343  64.9972 299.5222 13.61657922517806
